ONEWEB-0624             
1 55165U 23004AB  23287.28943130 -.00001294  00000+0 -36344-2 0  9992
2 55165  87.9005 184.8128 0002179  77.2157 282.9215 13.12426933 39918
ONEWEB-0625             
1 55166U 23004AC  23287.16426429  .00000018  00000+0  14130-4 0  9999
2 55166  87.9236 200.0640 0002155  76.7588 283.3784 13.17648060 38918
ONEWEB-0626             
1 55167U 23004AD  23286.84785220  .00000078  00000+0  16756-3 0  9992
2 55167  87.9250 200.1150 0001382  62.6538 297.4734 13.17652657 38875
ONEWEB-0627             
1 55168U 23004AE  23286.84151585  .00000073  00000+0  15389-3 0  9990
2 55168  87.9235 200.1328 0001494 102.7521 257.3778 13.17648970 38874
ONEWEB-0628             
1 55169U 23004AF  23286.73687061 -.00000109  00000+0 -33828-3 0  9992
2 55169  87.8991 185.0145 0001870  92.7650 267.3693 13.12439615 39822
ONEWEB-0629             
1 55170U 23004AG  23287.13894220  .00000166  00000+0  39421-3 0  9992
2 55170  87.9250 200.0581 0002216  88.8269 271.3116 13.17651895 38917
ONEWEB-0631             
1 55171U 23004AH  23287.25001157 -.00030647  00000+0 -21983-1 0  9996
2 55171  87.1258 172.4191 0004919  68.8171 340.0486 13.97307389 40707
ONEWEB-0709             
1 55172U 23004AJ  23286.84150338 -.00000478  00000+0 -13843-2 0  9993
2 55172  87.9006 215.2539 0001270  50.4923 309.6317 13.11422965 37779
